{
  "norad_id": 56077,
  "name": "ONEWEB-0636",
  "history": [
    {
      "epoch": "2026-03-28T19:40:20.161056Z",
      "apogee_km": 1202.9522011562967,
      "perigee_km": 1200.580752554527,
      "latitude_deg": 6.353808114301232e-06,
      "longitude_deg": 153.92184864152523,
      "height_km": 1204.8617404955266,
      "semi_major_axis_km": 7579.903476855411,
      "eccentricity": 0.00015643,
      "inclination_deg": 87.8928,
      "raan_deg": 275.2405,
      "arg_perigee_deg": 99.8322,
      "mean_anomaly_deg": 260.2985,
      "mean_motion_rev_day": 13.15549667
    },
    {
      "epoch": "2026-03-29T01:08:54.201984Z",
      "apogee_km": 1202.9467650305087,
      "perigee_km": 1200.5848673129904,
      "latitude_deg": -1.1541614872710673e-05,
      "longitude_deg": 71.5095143815525,
      "height_km": 1204.8644958305654,
      "semi_major_axis_km": 7579.90281617175,
      "eccentricity": 0.0001558,
      "inclination_deg": 87.8929,
      "raan_deg": 275.1949,
      "arg_perigee_deg": 100.0398,
      "mean_anomaly_deg": 260.0908,
      "mean_motion_rev_day": 13.15549839
    },
    {
      "epoch": "2026-03-30T00:52:41.743200Z",
      "apogee_km": 1202.9592029019514,
      "perigee_km": 1200.5745651400384,
      "latitude_deg": -4.0571018781561343e-05,
      "longitude_deg": 74.3891742080467,
      "height_km": 1204.8822247557487,
      "semi_major_axis_km": 7579.903884020995,
      "eccentricity": 0.0001573,
      "inclination_deg": 87.8928,
      "raan_deg": 274.9972,
      "arg_perigee_deg": 100.7576,
      "mean_anomaly_deg": 259.3731,
      "mean_motion_rev_day": 13.15549561
    },
    {
      "epoch": "2026-03-30T06:21:15.772896Z",
      "apogee_km": 1202.9533443619302,
      "perigee_km": 1200.5805312332423,
      "latitude_deg": -8.18042763061108e-05,
      "longitude_deg": -8.02331366863822,
      "height_km": 1204.870795444572,
      "semi_major_axis_km": 7579.903937797586,
      "eccentricity": 0.00015652,
      "inclination_deg": 87.8927,
      "raan_deg": 274.9514,
      "arg_perigee_deg": 100.2472,
      "mean_anomaly_deg": 259.8834,
      "mean_motion_rev_day": 13.15549547
    },
    {
      "epoch": "2026-03-30T13:39:21.171456Z",
      "apogee_km": 1202.956022025899,
      "perigee_km": 1200.5792671255458,
      "latitude_deg": -1.1376897564028339e-06,
      "longitude_deg": -117.90646629729277,
      "height_km": 1204.875337628954,
      "semi_major_axis_km": 7579.904644575722,
      "eccentricity": 0.00015678,
      "inclination_deg": 87.8927,
      "raan_deg": 274.8906,
      "arg_perigee_deg": 100.4187,
      "mean_anomaly_deg": 259.712,
      "mean_motion_rev_day": 13.15549363
    },
    {
      "epoch": "2026-03-30T20:57:26.531136Z",
      "apogee_km": 1202.9592574185526,
      "perigee_km": 1200.5741649167967,
      "latitude_deg": 5.2699812037940557e-05,
      "longitude_deg": 132.21044253547976,
      "height_km": 1204.880725798972,
      "semi_major_axis_km": 7579.903711167674,
      "eccentricity": 0.00015733,
      "inclination_deg": 87.8926,
      "raan_deg": 274.8297,
      "arg_perigee_deg": 100.6915,
      "mean_anomaly_deg": 259.4393,
      "mean_motion_rev_day": 13.15549606
    },
    {
      "epoch": "2026-03-31T18:51:42.611040Z",
      "apogee_km": 1202.9715109409462,
      "perigee_km": 1200.5580702108273,
      "latitude_deg": -3.355972513030367e-05,
      "longitude_deg": 162.56125654761473,
      "height_km": 1204.8900252915466,
      "semi_major_axis_km": 7579.9017905758865,
      "eccentricity": 0.0001592,
      "inclination_deg": 87.8925,
      "raan_deg": 274.6471,
      "arg_perigee_deg": 101.1075,
      "mean_anomaly_deg": 259.0234,
      "mean_motion_rev_day": 13.15550106
    },
    {
      "epoch": "2026-04-01T18:35:30.107328Z",
      "apogee_km": 1202.9914687804949,
      "perigee_km": 1200.5431596869985,
      "latitude_deg": -6.870669506487727e-05,
      "longitude_deg": 165.44110459203412,
      "height_km": 1204.9037892207778,
      "semi_major_axis_km": 7579.904314233747,
      "eccentricity": 0.0001615,
      "inclination_deg": 87.8924,
      "raan_deg": 274.4494,
      "arg_perigee_deg": 101.4851,
      "mean_anomaly_deg": 258.646,
      "mean_motion_rev_day": 13.15549449
    },
    {
      "epoch": "2026-04-02T11:01:12.140256Z",
      "apogee_km": 1203.0018448781784,
      "perigee_km": 1200.5276133557609,
      "latitude_deg": 1.7361167459184494e-05,
      "longitude_deg": -81.79581690992194,
      "height_km": 1204.896338479742,
      "semi_major_axis_km": 7579.901729116969,
      "eccentricity": 0.00016321,
      "inclination_deg": 87.8928,
      "raan_deg": 274.3123,
      "arg_perigee_deg": 101.1354,
      "mean_anomaly_deg": 258.996,
      "mean_motion_rev_day": 13.15550122
    },
    {
      "epoch": "2026-04-02T21:58:20.229024Z",
      "apogee_km": 1203.008653381141,
      "perigee_km": 1200.522748491343,
      "latitude_deg": 3.736732483787483e-05,
      "longitude_deg": 113.37938814442099,
      "height_km": 1204.900612489912,
      "semi_major_axis_km": 7579.902700936242,
      "eccentricity": 0.00016398,
      "inclination_deg": 87.8928,
      "raan_deg": 274.221,
      "arg_perigee_deg": 101.2383,
      "mean_anomaly_deg": 258.8932,
      "mean_motion_rev_day": 13.15549869
    },
    {
      "epoch": "2026-04-03T18:03:04.978080Z",
      "apogee_km": 1203.0260259160596,
      "perigee_km": 1200.5019188922497,
      "latitude_deg": -1.596713007533295e-05,
      "longitude_deg": 171.20121258392666,
      "height_km": 1204.9125399021898,
      "semi_major_axis_km": 7579.900972404154,
      "eccentricity": 0.0001665,
      "inclination_deg": 87.8931,
      "raan_deg": 274.0539,
      "arg_perigee_deg": 101.6996,
      "mean_anomaly_deg": 258.4321,
      "mean_motion_rev_day": 13.15550319
    },
    {
      "epoch": "2026-04-04T12:18:18.462816Z",
      "apogee_km": 1203.034159882276,
      "perigee_km": 1200.4927708542482,
      "latitude_deg": 5.448164742295709e-05,
      "longitude_deg": -103.5066264439309,
      "height_km": 1204.9131361260363,
      "semi_major_axis_km": 7579.900465368262,
      "eccentricity": 0.00016764,
      "inclination_deg": 87.8931,
      "raan_deg": 273.9019,
      "arg_perigee_deg": 101.6711,
      "mean_anomaly_deg": 258.4608,
      "mean_motion_rev_day": 13.15550451
    },
    {
      "epoch": "2026-04-05T12:02:05.972064Z",
      "apogee_km": 1203.0474604338606,
      "perigee_km": 1200.478026018901,
      "latitude_deg": -3.189348277861729e-05,
      "longitude_deg": -100.62683703892402,
      "height_km": 1204.9221668538855,
      "semi_major_axis_km": 7579.89974322638,
      "eccentricity": 0.00016949,
      "inclination_deg": 87.8932,
      "raan_deg": 273.7042,
      "arg_perigee_deg": 101.9868,
      "mean_anomaly_deg": 258.1452,
      "mean_motion_rev_day": 13.15550639
    },
    {
      "epoch": "2026-04-05T22:59:14.079840Z",
      "apogee_km": 1203.0435404787895,
      "perigee_km": 1200.482898586628,
      "latitude_deg": -6.206627068694478e-05,
      "longitude_deg": 94.54828562585438,
      "height_km": 1204.923294855549,
      "semi_major_axis_km": 7579.900219532708,
      "eccentricity": 0.00016891,
      "inclination_deg": 87.8932,
      "raan_deg": 273.6129,
      "arg_perigee_deg": 102.0577,
      "mean_anomaly_deg": 258.0742,
      "mean_motion_rev_day": 13.15550515
    },
    {
      "epoch": "2026-04-07T11:29:41.373312Z",
      "apogee_km": 1203.053052752266,
      "perigee_km": 1200.494074945911,
      "latitude_deg": 3.2584928037767034e-05,
      "longitude_deg": -94.86895076828607,
      "height_km": 1204.9276592902324,
      "semi_major_axis_km": 7579.910563849088,
      "eccentricity": 0.0001688,
      "inclination_deg": 87.8932,
      "raan_deg": 273.3087,
      "arg_perigee_deg": 101.7929,
      "mean_anomaly_deg": 258.3391,
      "mean_motion_rev_day": 13.15547822
    },
    {
      "epoch": "2026-04-07T20:37:18.182208Z",
      "apogee_km": 1203.0676186351293,
      "perigee_km": 1200.4813528361974,
      "latitude_deg": -2.2620529645093297e-05,
      "longitude_deg": 127.77664758690567,
      "height_km": 1204.9459570214976,
      "semi_major_axis_km": 7579.9114857356635,
      "eccentricity": 0.0001706,
      "inclination_deg": 87.8933,
      "raan_deg": 273.2325,
      "arg_perigee_deg": 102.4545,
      "mean_anomaly_deg": 257.6776,
      "mean_motion_rev_day": 13.15547582
    },
    {
      "epoch": "2026-04-08T11:13:29.080416Z",
      "apogee_km": 1203.0893324777462,
      "perigee_km": 1200.464863020542,
      "latitude_deg": -2.5573524906816103e-05,
      "longitude_deg": -91.99018859826667,
      "height_km": 1204.9462590080498,
      "semi_major_axis_km": 7579.914097749144,
      "eccentricity": 0.00017312,
      "inclination_deg": 87.8932,
      "raan_deg": 273.1108,
      "arg_perigee_deg": 102.1693,
      "mean_anomaly_deg": 257.9631,
      "mean_motion_rev_day": 13.15546902
    },
    {
      "epoch": "2026-04-09T12:46:48.051840Z",
      "apogee_km": 1203.1277231848926,
      "perigee_km": 1200.4262418415246,
      "latitude_deg": -9.66557217967935e-05,
      "longitude_deg": -116.58175963208434,
      "height_km": 1204.9537311493875,
      "semi_major_axis_km": 7579.913982513209,
      "eccentricity": 0.0001782,
      "inclination_deg": 87.8931,
      "raan_deg": 272.8978,
      "arg_perigee_deg": 102.1496,
      "mean_anomaly_deg": 257.9833,
      "mean_motion_rev_day": 13.15546932
    },
    {
      "epoch": "2026-04-10T05:12:30.273120Z",
      "apogee_km": 1203.130511448795,
      "perigee_km": 1200.4216021205611,
      "latitude_deg": 4.145494918905682e-05,
      "longitude_deg": -3.819268654971216,
      "height_km": 1204.9511824799079,
      "semi_major_axis_km": 7579.913056784678,
      "eccentricity": 0.00017869,
      "inclination_deg": 87.8934,
      "raan_deg": 272.7609,
      "arg_perigee_deg": 102.0468,
      "mean_anomaly_deg": 258.0863,
      "mean_motion_rev_day": 13.15547173
    }
  ]
}